KUIPER-00157            
1 65970U 25228Z   25300.30228820  .00027940  00000+0  83711-3 0  9995
2 65970  51.8811 244.3134 0005830 197.4616 162.6170 15.34278716  3284
